PROBA-1                 
1 26958U 01049B   26162.62735442  .00002597  00000+0  16987-3 0  9990
2 26958  97.9606 170.9651 0055765 140.5011 220.0301 15.07474718342784
CUTE-1 (CO-55)          
1 27844U 03031E   26162.55782411  .00000255  00000+0  12921-3 0  9991
2 27844  98.6735 171.1873 0009139 194.6488 165.4428 14.24332340190876
CUBESAT XI-IV (CO-57)   
1 27848U 03031J   26162.54345884  .00000221  00000+0  11637-3 0  9999
2 27848  98.6768 170.8906 0008680 214.5229 145.5387 14.23617902190573
APRIZESAT 4             
1 35684U 09041D   26162.45791769  .00000551  00000+0  72460-4 0  9998
2 35684  98.1412 237.6641 0042795 341.9353  18.0337 14.83871583910513
APRIZESAT 3             
1 35686U 09041F   26162.41456285  .00001151  00000+0  10394-3 0  9991
2 35686  98.2053 315.3624 0062752  86.3032 274.5361 14.96223120915514
PROBA-2                 
1 36037U 09059B   26162.46332347  .00000154  00000+0  46367-4 0  9990
2 36037  98.2450 345.8955 0012123 301.6481  58.3533 14.54859902880695
APRIZESAT 5             
1 37792U 11044E   26162.53495126  .00001019  00000+0  13582-3 0  9992
2 37792  98.2454  95.4151 0052791  22.3527 337.9968 14.81063784797956
APRIZESAT 6             
1 37793U 11044F   26162.54450660  .00000640  00000+0  97374-4 0  9999
2 37793  98.2370  72.9288 0044439 103.5403  68.8645 14.76907563796317
PROBA-V                 
1 39159U 13021A   26162.49637247  .00000065  00000+0  46357-4 0  9992
2 39159  98.3582 141.3840 0004917 136.9652 223.1913 14.23595841680308
APRIZESAT 7             
1 39416U 13066A   26162.58585179  .00000768  00000+0  81569-4 0  9997
2 39416  97.7707 115.8865 0034591 228.2771 131.5488 14.91552327680392
APRIZESAT 8             
1 39425U 13066K   26162.08792428  .00000874  00000+0  10067-3 0  9991
2 39425  97.8220 109.6410 0044691 307.2502  52.4642 14.87640786678765
BUGSAT-1 (TITA)         
1 40014U 14033E   26162.62226999  .00004344  00000+0  23113-3 0  9999
2 40014  98.0423 254.8461 0027622 197.2751 162.7543 15.15523275654995
SAUDISAT 4              
1 40016U 14033G   26162.37032582  .00000584  00000+0  83536-4 0  9994
2 40016  97.7575 308.7066 0046243  92.3247 268.3261 14.79536639645218
APRIZESAT 9             
1 40018U 14033J   26162.64189690  .00000578  00000+0  92365-4 0  9992
2 40018  97.9053 295.9762 0065307 217.1673 142.5005 14.74207063642740
APRIZESAT 10            
1 40019U 14033K   26162.34432354  .00000338  00000+0  61137-4 0  9995
2 40019  97.9642 289.4343 0077516 292.8263  66.4770 14.70877300641394
TECHDEMOSAT-1 (TDS-1)   
1 40076U 14037H   26162.53799915  .00007275  00000+0  41385-3 0  9991
2 40076  98.3806 154.1908 0004653 292.1078  67.9656 15.13208718647370
TECHNOSAT               
1 42829U 17042E   26162.39817513  .00003079  00000+0  22080-3 0  9996
2 42829  97.4263 320.2771 0018777 112.5016 247.8201 15.04918472485839
FLYING LAPTOP           
1 42831U 17042G   26162.65287334  .00003083  00000+0  24442-3 0  9999
2 42831  97.4660 318.3997 0019326 139.6985 220.5677 15.01109878485628
HAWK-A                  
1 43765U 18099H   26162.11302195  .00005626  00000+0  22779-3 0  9999
2 43765  97.3922 214.4281 0033337 308.3691  51.4553 15.24571307412173
HAWK-B                  
1 43794U 18099AN  26162.58731780  .00005276  00000+0  22610-3 0  9993
2 43794  97.3969 214.3229 0030859 325.5039  34.4194 15.22764518412189
HAWK-C                  
1 43799U 18099AT  26162.10328366  .00006945  00000+0  25125-3 0  9996
2 43799  97.3897 215.3009 0038991 308.2574  51.5159 15.28017972412988
SALSAT                  
1 46495U 20068K   26162.58556221  .00006923  00000+0  24314-3 0  9991
2 46495  97.8849 165.3093 0008525 331.4069  28.6701 15.29719030314502
HAWK-2C                 
1 47502U 21006CT  26162.60987770  .00006025  00000+0  18198-3 0  9990
2 47502  97.2285 207.0311 0006032 206.1668 153.9272 15.34596063298647
HAWK-2A                 
1 47505U 21006CW  26162.61242484  .00006021  00000+0  18180-3 0  9997
2 47505  97.2327 207.7081 0005467 209.6620 150.4314 15.34611001298644
HAWK-2B                 
1 47508U 21006CZ  26162.60826466  .00006719  00000+0  20206-3 0  9993
2 47508  97.2198 206.0446 0006030 207.7655 152.3268 15.34690380298640
HAWK-3B                 
1 48931U 21059BE  26162.52180966  .00043874  00000+0  37921-3 0  9996
2 48931  97.6668 358.6970 0003628 358.9023   1.2230 15.69091856276964
HAWK-3C                 
1 48948U 21059BX  26162.52149468  .00042957  00000+0  37138-3 0  9997
2 48948  97.6789   4.3728 0003964 359.6641   0.4616 15.69087859276966
HAWK-3A                 
1 48957U 21059CG  26162.52139129  .00044565  00000+0  38507-3 0  9998
2 48957  97.6731   1.5819 0004075   1.3563 358.7708 15.69093450276966
HAWK-5C                 
1 52754U 22057Y   26162.43223812  .00016456  00000+0  28297-3 0  9993
2 52754  97.6585 321.7300 0005304  99.9710 260.2140 15.51188382225453
HAWK-5B                 
1 52756U 22057AA  26162.43208986  .00016383  00000+0  28169-3 0  9997
2 52756  97.6591 320.0784 0005961  93.0818 267.1115 15.51188759225459
